[
  {
    "OBJECT_NAME": "STARLINK-31102",
    "OBJECT_ID": "2024-002L",
    "EPOCH": "2024-02-03T10:50:42.359424",
    "MEAN_MOTION": 15.28018889,
    "ECCENTRICITY": 0.0002051,
    "INCLINATION": 53.1599,
    "RA_OF_ASC_NODE": 99.7769,
    "ARG_OF_PERICENTER": 100.4774,
    "MEAN_ANOMALY": 259.6457,
    "EPHEMERIS_TYPE": 0,
    "CLASSIFICATION_TYPE": "U",
    "NORAD_CAT_ID": 58715,
    "ELEMENT_SET_NO": 999,
    "REV_AT_EPOCH": 596,
    "BSTAR": 0.0016858,
    "MEAN_MOTION_DOT": 0.00046636,
    "MEAN_MOTION_DDOT": 0
  },
  {
    "OBJECT_NAME": "STARLINK-31098",
    "OBJECT_ID": "2024-002M",
    "EPOCH": "2024-02-04T04:00:30.554784",
    "MEAN_MOTION": 15.28019511,
    "ECCENTRICITY": 0.0002375,
    "INCLINATION": 53.1598,
    "RA_OF_ASC_NODE": 96.4168,
    "ARG_OF_PERICENTER": 111.9096,
    "MEAN_ANOMALY": 248.2156,
    "EPHEMERIS_TYPE": 0,
    "CLASSIFICATION_TYPE": "U",
    "NORAD_CAT_ID": 58716,
    "ELEMENT_SET_NO": 999,
    "REV_AT_EPOCH": 613,
    "BSTAR": 0.00037318,
    "MEAN_MOTION_DOT": 9.999e-05,
    "MEAN_MOTION_DDOT": 0
  },
  {
    "OBJECT_NAME": "STARLINK-31093",
    "OBJECT_ID": "2024-002N",
    "EPOCH": "2024-02-03T11:51:13.013568",
    "MEAN_MOTION": 15.28030081,
    "ECCENTRICITY": 0.0001716,
    "INCLINATION": 53.1628,
    "RA_OF_ASC_NODE": 99.3317,
    "ARG_OF_PERICENTER": 99.8409,
    "MEAN_ANOMALY": 260.2784,
    "EPHEMERIS_TYPE": 0,
    "CLASSIFICATION_TYPE": "U",
    "NORAD_CAT_ID": 58717,
    "ELEMENT_SET_NO": 999,
    "REV_AT_EPOCH": 592,
    "BSTAR": 0.00026945,
    "MEAN_MOTION_DOT": 7.122e-05,
    "MEAN_MOTION_DDOT": 0
  },
  {
    "OBJECT_NAME": "STARLINK-31097",
    "OBJECT_ID": "2024-002P",
    "EPOCH": "2024-02-04T03:53:47.318208",
    "MEAN_MOTION": 15.28039998,
    "ECCENTRICITY": 0.0002732,
    "INCLINATION": 53.1626,
    "RA_OF_ASC_NODE": 96.3852,
    "ARG_OF_PERICENTER": 139.6441,
    "MEAN_ANOMALY": 220.4762,
    "EPHEMERIS_TYPE": 0,
    "CLASSIFICATION_TYPE": "U",
    "NORAD_CAT_ID": 58718,
    "ELEMENT_SET_NO": 999,
    "REV_AT_EPOCH": 614,
    "BSTAR": 0.00053892,
    "MEAN_MOTION_DOT": 0.00014615,
    "MEAN_MOTION_DDOT": 0
  },
  {
    "OBJECT_NAME": "STARLINK-31051",
    "OBJECT_ID": "2024-002Q",
    "EPOCH": "2024-02-04T03:53:17.435040",
    "MEAN_MOTION": 15.28030557,
    "ECCENTRICITY": 0.0001874,
    "INCLINATION": 53.1623,
    "RA_OF_ASC_NODE": 96.3905,
    "ARG_OF_PERICENTER": 97.9983,
    "MEAN_ANOMALY": 262.1229,
    "EPHEMERIS_TYPE": 0,
    "CLASSIFICATION_TYPE": "U",
    "NORAD_CAT_ID": 58719,
    "ELEMENT_SET_NO": 999,
    "REV_AT_EPOCH": 602,
    "BSTAR": 0.00053854,
    "MEAN_MOTION_DOT": 0.000146,
    "MEAN_MOTION_DDOT": 0
  },
  {
    "OBJECT_NAME": "STARLINK-31027",
    "OBJECT_ID": "2024-002R",
    "EPOCH": "2024-02-04T03:47:01.735008",
    "MEAN_MOTION": 15.28027513,
    "ECCENTRICITY": 0.0001567,
    "INCLINATION": 53.1617,
    "RA_OF_ASC_NODE": 96.3634,
    "ARG_OF_PERICENTER": 109.0394,
    "MEAN_ANOMALY": 251.0775,
    "EPHEMERIS_TYPE": 0,
    "CLASSIFICATION_TYPE": "U",
    "NORAD_CAT_ID": 58720,
    "ELEMENT_SET_NO": 999,
    "REV_AT_EPOCH": 602,
    "BSTAR": 0.00034788,
    "MEAN_MOTION_DOT": 9.299e-05,
    "MEAN_MOTION_DDOT": 0
  },
  {
    "OBJECT_NAME": "STARLINK-30972",
    "OBJECT_ID": "2024-002S",
    "EPOCH": "2024-02-04T03:46:33.258432",
    "MEAN_MOTION": 15.28019353,
    "ECCENTRICITY": 0.0001957,
    "INCLINATION": 53.1616,
    "RA_OF_ASC_NODE": 96.3598,
    "ARG_OF_PERICENTER": 104.2867,
    "MEAN_ANOMALY": 255.835,
    "EPHEMERIS_TYPE": 0,
    "CLASSIFICATION_TYPE": "U",
    "NORAD_CAT_ID": 58721,
    "ELEMENT_SET_NO": 999,
    "REV_AT_EPOCH": 614,
    "BSTAR": 0.00048835,
    "MEAN_MOTION_DOT": 0.00013199,
    "MEAN_MOTION_DDOT": 0
  },
  {
    "OBJECT_NAME": "STARLINK-31040",
    "OBJECT_ID": "2024-002T",
    "EPOCH": "2024-02-03T13:32:36.714912",
    "MEAN_MOTION": 15.28050193,
    "ECCENTRICITY": 0.0001703,
    "INCLINATION": 53.1604,
    "RA_OF_ASC_NODE": 99.0576,
    "ARG_OF_PERICENTER": 104.9659,
    "MEAN_ANOMALY": 255.153,
    "EPHEMERIS_TYPE": 0,
    "CLASSIFICATION_TYPE": "U",
    "NORAD_CAT_ID": 58722,
    "ELEMENT_SET_NO": 999,
    "REV_AT_EPOCH": 605,
    "BSTAR": 0.0010283,
    "MEAN_MOTION_DOT": 0.00028266,
    "MEAN_MOTION_DDOT": 0
  },
  {
    "OBJECT_NAME": "STARLINK-31033",
    "OBJECT_ID": "2024-002U",
    "EPOCH": "2024-02-03T13:18:38.900160",
    "MEAN_MOTION": 15.28053579,
    "ECCENTRICITY": 0.0001709,
    "INCLINATION": 53.1595,
    "RA_OF_ASC_NODE": 98.9955,
    "ARG_OF_PERICENTER": 82.6691,
    "MEAN_ANOMALY": 277.4503,
    "EPHEMERIS_TYPE": 0,
    "CLASSIFICATION_TYPE": "U",
    "NORAD_CAT_ID": 58723,
    "ELEMENT_SET_NO": 999,
    "REV_AT_EPOCH": 592,
    "BSTAR": 0.0010026,
    "MEAN_MOTION_DOT": 0.00027551,
    "MEAN_MOTION_DDOT": 0
  },
  {
    "OBJECT_NAME": "STARLINK-30893",
    "OBJECT_ID": "2024-002V",
    "EPOCH": "2024-02-03T13:32:07.287936",
    "MEAN_MOTION": 15.28034745,
    "ECCENTRICITY": 0.0001589,
    "INCLINATION": 53.1616,
    "RA_OF_ASC_NODE": 99.0607,
    "ARG_OF_PERICENTER": 106.7757,
    "MEAN_ANOMALY": 253.3417,
    "EPHEMERIS_TYPE": 0,
    "CLASSIFICATION_TYPE": "U",
    "NORAD_CAT_ID": 58724,
    "ELEMENT_SET_NO": 999,
    "REV_AT_EPOCH": 593,
    "BSTAR": 0.00010122,
    "MEAN_MOTION_DOT": 2.455e-05,
    "MEAN_MOTION_DDOT": 0
  },
  {
    "OBJECT_NAME": "STARLINK-30856",
    "OBJECT_ID": "2024-002W",
    "EPOCH": "2024-02-03T11:51:42.150240",
    "MEAN_MOTION": 15.28040678,
    "ECCENTRICITY": 0.0002524,
    "INCLINATION": 53.16,
    "RA_OF_ASC_NODE": 99.3388,
    "ARG_OF_PERICENTER": 57.9973,
    "MEAN_ANOMALY": 302.1272,
    "EPHEMERIS_TYPE": 0,
    "CLASSIFICATION_TYPE": "U",
    "NORAD_CAT_ID": 58725,
    "ELEMENT_SET_NO": 999,
    "REV_AT_EPOCH": 607,
    "BSTAR": 0.00067698,
    "MEAN_MOTION_DOT": 0.00018459,
    "MEAN_MOTION_DDOT": 0
  },
  {
    "OBJECT_NAME": "STARLINK-31155",
    "OBJECT_ID": "2024-005A",
    "EPOCH": "2024-02-03T22:00:00.999936",
    "MEAN_MOTION": 15.27155155,
    "ECCENTRICITY": 0.0001552,
    "INCLINATION": 43.0005,
    "RA_OF_ASC_NODE": 60.9736,
    "ARG_OF_PERICENTER": 267.0539,
    "MEAN_ANOMALY": 160.1474,
    "EPHEMERIS_TYPE": 0,
    "CLASSIFICATION_TYPE": "U",
    "NORAD_CAT_ID": 58728,
    "ELEMENT_SET_NO": 999,
    "REV_AT_EPOCH": 534,
    "BSTAR": -0.089357,
    "MEAN_MOTION_DOT": -0.0217376,
    "MEAN_MOTION_DDOT": 0
  },
  {
    "OBJECT_NAME": "STARLINK-31115",
    "OBJECT_ID": "2024-005B",
    "EPOCH": "2024-02-03T22:00:00.999936",
    "MEAN_MOTION": 15.27826826,
    "ECCENTRICITY": 0.0001454,
    "INCLINATION": 43.0004,
    "RA_OF_ASC_NODE": 60.9398,
    "ARG_OF_PERICENTER": 265.1991,
    "MEAN_ANOMALY": 175.983,
    "EPHEMERIS_TYPE": 0,
    "CLASSIFICATION_TYPE": "U",
    "NORAD_CAT_ID": 58729,
    "ELEMENT_SET_NO": 999,
    "REV_AT_EPOCH": 534,
    "BSTAR": -0.087491,
    "MEAN_MOTION_DOT": -0.02172846,
    "MEAN_MOTION_DDOT": 0
  },
  {
    "OBJECT_NAME": "STARLINK-31150",
    "OBJECT_ID": "2024-005C",
    "EPOCH": "2024-02-02T12:29:52.835424",
    "MEAN_MOTION": 15.7377681,
    "ECCENTRICITY": 0.000212,
    "INCLINATION": 43.0006,
    "RA_OF_ASC_NODE": 66.9412,
    "ARG_OF_PERICENTER": 233.4094,
    "MEAN_ANOMALY": 126.6579,
    "EPHEMERIS_TYPE": 0,
    "CLASSIFICATION_TYPE": "U",
    "NORAD_CAT_ID": 58730,
    "ELEMENT_SET_NO": 999,
    "REV_AT_EPOCH": 514,
    "BSTAR": 0.00072207,
    "MEAN_MOTION_DOT": 0.00105867,
    "MEAN_MOTION_DDOT": 0
  }
]