STARLINK-31102          
1 58715U 24002L   24034.45187916  .00046636  00000+0  16858-2 0  9992
2 58715  53.1599  99.7769 0002051 100.4774 259.6457 15.28018889  5966
STARLINK-31098          
1 58716U 24002M   24035.16702031  .00009999  00000+0  37318-3 0  9999
2 58716  53.1598  96.4168 0002375 111.9096 248.2156 15.28019511  6139
STARLINK-31093          
1 58717U 24002N   24034.49390062  .00007122  00000+0  26945-3 0  9992
2 58717  53.1628  99.3317 0001716  99.8409 260.2784 15.28030081  5924
STARLINK-31097          
1 58718U 24002P   24035.16235322  .00014615  00000+0  53892-3 0  9991
2 58718  53.1626  96.3852 0002732 139.6441 220.4762 15.28039998  6147
STARLINK-31051          
1 58719U 24002Q   24035.16200735  .00014600  00000+0  53854-3 0  9994
2 58719  53.1623  96.3905 0001874  97.9983 262.1229 15.28030557  6027
STARLINK-31027          
1 58720U 24002R   24035.15765897  .00009299  00000+0  34788-3 0  9993
2 58720  53.1617  96.3634 0001567 109.0394 251.0775 15.28027513  6022
STARLINK-30972          
1 58721U 24002S   24035.15732938  .00013199  00000+0  48835-3 0  9996
2 58721  53.1616  96.3598 0001957 104.2867 255.8350 15.28019353  6143
STARLINK-31040          
1 58722U 24002T   24034.56431383  .00028266  00000+0  10283-2 0  9997
2 58722  53.1604  99.0576 0001703 104.9659 255.1530 15.28050193  6052
STARLINK-31033          
1 58723U 24002U   24034.55461690  .00027551  00000+0  10026-2 0  9992
2 58723  53.1595  98.9955 0001709  82.6691 277.4503 15.28053579  5928
STARLINK-30893          
1 58724U 24002V   24034.56397324  .00002455  00000+0  10122-3 0  9990
2 58724  53.1616  99.0607 0001589 106.7757 253.3417 15.28034745  5938
STARLINK-30856          
1 58725U 24002W   24034.49423785  .00018459  00000+0  67698-3 0  9995
2 58725  53.1600  99.3388 0002524  57.9973 302.1272 15.28040678  6078
STARLINK-31155          
1 58728U 24005A   24034.91667824 -.02173760  00000+0 -89357-1 0  9997
2 58728  43.0005  60.9736 0001552 267.0539 160.1474 15.27155155  5342
STARLINK-31115          
1 58729U 24005B   24034.91667824 -.02172846  00000+0 -87491-1 0  9999
2 58729  43.0004  60.9398 0001454 265.1991 175.9830 15.27826826  5348
STARLINK-31150          
1 58730U 24005C   24033.52075041  .00105867  00000+0  72207-3 0  9997
2 58730  43.0006  66.9412 0002120 233.4094 126.6579 15.73776810  5147
